{
  "type": "FeatureCollection",
  "features": [
    {
      "type": "Feature",
      "properties": {
        "norad_id": 33723,
        "name": "FENGYUN 1C DEB",
        "group": "fengyun-1c-debris",
        "lat": -65.99608742859273,
        "lon": -144.62814383197164,
        "alt_km": 882.8399944043949,
        "timestamp": "2025-12-02T06:27:53.300566+00:00",
        "meta_object_name": "FENGYUN 1C DEB",
        "meta_object_id": "1999-025DHL",
        "meta_epoch": "2025-11-30T11:06:07.081344",
        "meta_mean_motion": 14.13160086,
        "meta_eccentricity": 0.00983728,
        "meta_inclination": 99.1553,
        "meta_ra_of_asc_node": 54.7561,
        "meta_arg_of_pericenter": 5.6896,
        "meta_mean_anomaly": 56.2557,
        "meta_ephemeris_type": 0,
        "meta_classification_type": "U",
        "meta_norad_cat_id": 33723,
        "meta_element_set_no": 999,
        "meta_rev_at_epoch": 63450,
        "meta_bstar": 0.0020390753,
        "meta_mean_motion_dot": 3.948e-05,
        "meta_mean_motion_ddot": 0,
        "tle_line1": "1 33723U 99025DHL 25334.46258196  .00003948  00000+0  20391-2 0  9991",
        "tle_line2": "2 33723  99.1553  54.7561 0098372   5.6896  56.2557 14.13160086634501"
      },
      "geometry": {
        "type": "Point",
        "coordinates": [
          -144.62814383197164,
          -65.99608742859273
        ]
      }
    },
    {
      "type": "Feature",
      "properties": {
        "norad_id": 33724,
        "name": "FENGYUN 1C DEB",
        "group": "fengyun-1c-debris",
        "lat": 75.37625806611048,
        "lon": -157.654963472227,
        "alt_km": 826.1381105575019,
        "timestamp": "2025-12-02T06:27:53.300576+00:00",
        "meta_object_name": "FENGYUN 1C DEB",
        "meta_object_id": "1999-025DHM",
        "meta_epoch": "2025-12-01T18:59:47.544864",
        "meta_mean_motion": 14.19612162,
        "meta_eccentricity": 0.0026932,
        "meta_inclination": 98.6044,
        "meta_ra_of_asc_node": 346.4099,
        "meta_arg_of_pericenter": 213.4232,
        "meta_mean_anomaly": 328.0159,
        "meta_ephemeris_type": 0,
        "meta_classification_type": "U",
        "meta_norad_cat_id": 33724,
        "meta_element_set_no": 999,
        "meta_rev_at_epoch": 93806,
        "meta_bstar": 0.00047528,
        "meta_mean_motion_dot": 9.64e-06,
        "meta_mean_motion_ddot": 0,
        "tle_line1": "1 33724U 99025DHM 25335.79152251  .00000964  00000+0  47528-3 0  9991",
        "tle_line2": "2 33724  98.6044 346.4099 0026932 213.4232 328.0159 14.19612162938063"
      },
      "geometry": {
        "type": "Point",
        "coordinates": [
          -157.654963472227,
          75.37625806611048
        ]
      }
    },
    {
      "type": "Feature",
      "properties": {
        "norad_id": 33726,
        "name": "FENGYUN 1C DEB",
        "group": "fengyun-1c-debris",
        "lat": -66.80771153510926,
        "lon": 121.59730879849933,
        "alt_km": 938.8094350351421,
        "timestamp": "2025-12-02T06:27:53.300587+00:00",
        "meta_object_name": "FENGYUN 1C DEB",
        "meta_object_id": "1999-025DHP",
        "meta_epoch": "2025-12-01T07:07:01.659072",
        "meta_mean_motion": 14.14281011,
        "meta_eccentricity": 0.019327,
        "meta_inclination": 98.6386,
        "meta_ra_of_asc_node": 99.8733,
        "meta_arg_of_pericenter": 63.7538,
        "meta_mean_anomaly": 319.3808,
        "meta_ephemeris_type": 0,
        "meta_classification_type": "U",
        "meta_norad_cat_id": 33726,
        "meta_element_set_no": 999,
        "meta_rev_at_epoch": 91770,
        "meta_bstar": 0.00038757,
        "meta_mean_motion_dot": 8.44e-06,
        "meta_mean_motion_ddot": 0,
        "tle_line1": "1 33726U 99025DHP 25335.29654698  .00000844  00000+0  38757-3 0  9991",
        "tle_line2": "2 33726  98.6386  99.8733 0193270  63.7538 319.3808 14.14281011917705"
      },
      "geometry": {
        "type": "Point",
        "coordinates": [
          121.59730879849933,
          -66.80771153510926
        ]
      }
    },
    {
      "type": "Feature",
      "properties": {
        "norad_id": 33728,
        "name": "FENGYUN 1C DEB",
        "group": "fengyun-1c-debris",
        "lat": 9.39067948131409,
        "lon": -147.81394901811726,
        "alt_km": 570.0673285805051,
        "timestamp": "2025-12-02T06:27:53.300596+00:00",
        "meta_object_name": "FENGYUN 1C DEB",
        "meta_object_id": "1999-025DHR",
        "meta_epoch": "2025-12-01T02:20:02.909760",
        "meta_mean_motion": 14.92381486,
        "meta_eccentricity": 0.01478852,
        "meta_inclination": 98.9817,
        "meta_ra_of_asc_node": 29.3513,
        "meta_arg_of_pericenter": 252.5868,
        "meta_mean_anomaly": 105.9132,
        "meta_ephemeris_type": 0,
        "meta_classification_type": "U",
        "meta_norad_cat_id": 33728,
        "meta_element_set_no": 999,
        "meta_rev_at_epoch": 98126,
        "meta_bstar": 0.00063332929,
        "meta_mean_motion_dot": 7.937e-05,
        "meta_mean_motion_ddot": 0,
        "tle_line1": "1 33728U 99025DHR 25335.09725590  .00007937  00000+0  63333-3 0  9999",
        "tle_line2": "2 33728  98.9817  29.3513 0147885 252.5868 105.9132 14.92381486981262"
      },
      "geometry": {
        "type": "Point",
        "coordinates": [
          -147.81394901811726,
          9.39067948131409
        ]
      }
    },
    {
      "type": "Feature",
      "properties": {
        "norad_id": 33730,
        "name": "FENGYUN 1C DEB",
        "group": "fengyun-1c-debris",
        "lat": 74.86368070799618,
        "lon": -110.85652585251471,
        "alt_km": 660.6940390067593,
        "timestamp": "2025-12-02T06:27:53.300607+00:00",
        "meta_object_name": "FENGYUN 1C DEB",
        "meta_object_id": "1999-025DHT",
        "meta_epoch": "2025-11-27T20:57:44.098848",
        "meta_mean_motion": 14.63096088,
        "meta_eccentricity": 0.00406689,
        "meta_inclination": 99.058,
        "meta_ra_of_asc_node": 28.1817,
        "meta_arg_of_pericenter": 57.0936,
        "meta_mean_anomaly": 303.4166,
        "meta_ephemeris_type": 0,
        "meta_classification_type": "U",
        "meta_norad_cat_id": 33730,
        "meta_element_set_no": 999,
        "meta_rev_at_epoch": 95462,
        "meta_bstar": 0.0017238126,
        "meta_mean_motion_dot": 8.913e-05,
        "meta_mean_motion_ddot": 0,
        "tle_line1": "1 33730U 99025DHT 25331.87342707  .00008913  00000+0  17238-2 0  9996",
        "tle_line2": "2 33730  99.0580  28.1817 0040668  57.0936 303.4166 14.63096088954624"
      },
      "geometry": {
        "type": "Point",
        "coordinates": [
          -110.85652585251471,
          74.86368070799618
        ]
      }
    },
    {
      "type": "Feature",
      "properties": {
        "norad_id": 33731,
        "name": "FENGYUN 1C DEB",
        "group": "fengyun-1c-debris",
        "lat": 7.871566612918113,
        "lon": -3.0896086049640963,
        "alt_km": 888.5147443950391,
        "timestamp": "2025-12-02T06:27:53.300617+00:00",
        "meta_object_name": "FENGYUN 1C DEB",
        "meta_object_id": "1999-025DHU",
        "meta_epoch": "2025-11-28T07:46:14.335392",
        "meta_mean_motion": 13.95266632,
        "meta_eccentricity": 0.01296296,
        "meta_inclination": 99.4454,
        "meta_ra_of_asc_node": 354.1889,
        "meta_arg_of_pericenter": 95.0981,
        "meta_mean_anomaly": 266.4989,
        "meta_ephemeris_type": 0,
        "meta_classification_type": "U",
        "meta_norad_cat_id": 33731,
        "meta_element_set_no": 999,
        "meta_rev_at_epoch": 90248,
        "meta_bstar": 0.00078625858,
        "meta_mean_motion_dot": 1.095e-05,
        "meta_mean_motion_ddot": 0,
        "tle_line1": "1 33731U 99025DHU 25332.32377703  .00001095  00000+0  78626-3 0  9995",
        "tle_line2": "2 33731  99.4454 354.1889 0129629  95.0981 266.4989 13.95266632902483"
      },
      "geometry": {
        "type": "Point",
        "coordinates": [
          -3.0896086049640963,
          7.871566612918113
        ]
      }
    },
    {
      "type": "Feature",
      "properties": {
        "norad_id": 33733,
        "name": "FENGYUN 1C DEB",
        "group": "fengyun-1c-debris",
        "lat": 80.84771886336038,
        "lon": -23.05489028731799,
        "alt_km": 802.3061562062567,
        "timestamp": "2025-12-02T06:27:53.300627+00:00",
        "meta_object_name": "FENGYUN 1C DEB",
        "meta_object_id": "1999-025DHW",
        "meta_epoch": "2025-12-01T05:07:55.247232",
        "meta_mean_motion": 14.3062472,
        "meta_eccentricity": 0.0081329,
        "meta_inclination": 99.0999,
        "meta_ra_of_asc_node": 60.0061,
        "meta_arg_of_pericenter": 202.8537,
        "meta_mean_anomaly": 213.8436,
        "meta_ephemeris_type": 0,
        "meta_classification_type": "U",
        "meta_norad_cat_id": 33733,
        "meta_element_set_no": 999,
        "meta_rev_at_epoch": 90283,
        "meta_bstar": 0.0047064,
        "meta_mean_motion_dot": 0.00012718,
        "meta_mean_motion_ddot": 0,
        "tle_line1": "1 33733U 99025DHW 25335.21383388  .00012718  00000+0  47064-2 0  9999",
        "tle_line2": "2 33733  99.0999  60.0061 0081329 202.8537 213.8436 14.30624720902837"
      },
      "geometry": {
        "type": "Point",
        "coordinates": [
          -23.05489028731799,
          80.84771886336038
        ]
      }
    }
  ]
}